CCSDS_OMM_VERS = 2.0
CREATION_DATE  = 
ORIGINATOR     = 

OBJECT_NAME    = STARLINK-36996
OBJECT_ID      = 2026-041AA
CENTER_NAME    = EARTH
REF_FRAME      = TEME
TIME_SYSTEM    = UTC
MEAN_ELEMENT_THEORY = SGP/SGP4

EPOCH          = 2026-03-24T22:37:01.265664
MEAN_MOTION    = 15.80926417
ECCENTRICITY   = .00014369
INCLINATION    = 53.1588
RA_OF_ASC_NODE = 345.4897
ARG_OF_PERICENTER = 132.1466
MEAN_ANOMALY   = 227.9679

EPHEMERIS_TYPE = 0
CLASSIFICATION_TYPE = U
NORAD_CAT_ID   = 68064
ELEMENT_SET_NO = 999
REV_AT_EPOCH   = 363
BSTAR          = .89551651E-3
MEAN_MOTION_DOT = .180227E-2
MEAN_MOTION_DDOT = 0

CCSDS_OMM_VERS = 2.0
CREATION_DATE  = 
ORIGINATOR     = 

OBJECT_NAME    = STARLINK-36836
OBJECT_ID      = 2026-041AB
CENTER_NAME    = EARTH
REF_FRAME      = TEME
TIME_SYSTEM    = UTC
MEAN_ELEMENT_THEORY = SGP/SGP4

EPOCH          = 2026-03-24T22:34:51.685536
MEAN_MOTION    = 15.80872540
ECCENTRICITY   = .00018243
INCLINATION    = 53.1588
RA_OF_ASC_NODE = 345.4789
ARG_OF_PERICENTER = 9.4904
MEAN_ANOMALY   = 350.6153

EPHEMERIS_TYPE = 0
CLASSIFICATION_TYPE = U
NORAD_CAT_ID   = 68065
ELEMENT_SET_NO = 999
REV_AT_EPOCH   = 363
BSTAR          = .11244945E-2
MEAN_MOTION_DOT = .227173E-2
MEAN_MOTION_DDOT = 0

CCSDS_OMM_VERS = 2.0
CREATION_DATE  = 
ORIGINATOR     = 

OBJECT_NAME    = STARLINK-36976
OBJECT_ID      = 2026-041AC
CENTER_NAME    = EARTH
REF_FRAME      = TEME
TIME_SYSTEM    = UTC
MEAN_ELEMENT_THEORY = SGP/SGP4

EPOCH          = 2026-03-24T11:05:46.843008
MEAN_MOTION    = 15.75408118
ECCENTRICITY   = .00012355
INCLINATION    = 53.1580
RA_OF_ASC_NODE = 348.1940
ARG_OF_PERICENTER = 80.5938
MEAN_ANOMALY   = 279.5222

EPHEMERIS_TYPE = 0
CLASSIFICATION_TYPE = U
NORAD_CAT_ID   = 68066
ELEMENT_SET_NO = 999
REV_AT_EPOCH   = 355
BSTAR          = .20981667E-2
MEAN_MOTION_DOT = .336592E-2
MEAN_MOTION_DDOT = 0

CCSDS_OMM_VERS = 2.0
CREATION_DATE  = 
ORIGINATOR     = 

OBJECT_NAME    = STARLINK-36929
OBJECT_ID      = 2026-041AD
CENTER_NAME    = EARTH
REF_FRAME      = TEME
TIME_SYSTEM    = UTC
MEAN_ELEMENT_THEORY = SGP/SGP4

EPOCH          = 2026-03-24T23:22:44.298912
MEAN_MOTION    = 15.75291826
ECCENTRICITY   = .00009209
INCLINATION    = 53.1594
RA_OF_ASC_NODE = 345.7004
ARG_OF_PERICENTER = 62.8533
MEAN_ANOMALY   = 297.2581

EPHEMERIS_TYPE = 0
CLASSIFICATION_TYPE = U
NORAD_CAT_ID   = 68067
ELEMENT_SET_NO = 999
REV_AT_EPOCH   = 363
BSTAR          = .11182795E-2
MEAN_MOTION_DOT = .174768E-2
MEAN_MOTION_DDOT = 0

CCSDS_OMM_VERS = 2.0
CREATION_DATE  = 
ORIGINATOR     = 

OBJECT_NAME    = STARLINK-36990
OBJECT_ID      = 2026-041AE
CENTER_NAME    = EARTH
REF_FRAME      = TEME
TIME_SYSTEM    = UTC
MEAN_ELEMENT_THEORY = SGP/SGP4

EPOCH          = 2026-03-24T22:32:42.210816
MEAN_MOTION    = 15.80891177
ECCENTRICITY   = .00008276
INCLINATION    = 53.1589
RA_OF_ASC_NODE = 345.4683
ARG_OF_PERICENTER = 9.5071
MEAN_ANOMALY   = 350.5967

EPHEMERIS_TYPE = 0
CLASSIFICATION_TYPE = U
NORAD_CAT_ID   = 68068
ELEMENT_SET_NO = 999
REV_AT_EPOCH   = 363
BSTAR          = .12757556E-2
MEAN_MOTION_DOT = .259011E-2
MEAN_MOTION_DDOT = 0

CCSDS_OMM_VERS = 2.0
CREATION_DATE  = 
ORIGINATOR     = 

OBJECT_NAME    = STARLINK-36766
OBJECT_ID      = 2026-042A
CENTER_NAME    = EARTH
REF_FRAME      = TEME
TIME_SYSTEM    = UTC
MEAN_ELEMENT_THEORY = SGP/SGP4

EPOCH          = 2026-03-24T13:16:01.630560
MEAN_MOTION    = 15.81018521
ECCENTRICITY   = .00013876
INCLINATION    = 53.1580
RA_OF_ASC_NODE = 120.2902
ARG_OF_PERICENTER = 153.5453
MEAN_ANOMALY   = 206.5641

EPHEMERIS_TYPE = 0
CLASSIFICATION_TYPE = U
NORAD_CAT_ID   = 68069
ELEMENT_SET_NO = 999
REV_AT_EPOCH   = 443
BSTAR          = .10370375E-2
MEAN_MOTION_DOT = .210452E-2
MEAN_MOTION_DDOT = 0

CCSDS_OMM_VERS = 2.0
CREATION_DATE  = 
ORIGINATOR     = 

OBJECT_NAME    = STARLINK-36823
OBJECT_ID      = 2026-042B
CENTER_NAME    = EARTH
REF_FRAME      = TEME
TIME_SYSTEM    = UTC
MEAN_ELEMENT_THEORY = SGP/SGP4

EPOCH          = 2026-03-24T13:14:57.065568
MEAN_MOTION    = 15.80991095
ECCENTRICITY   = .00012279
INCLINATION    = 53.1577
RA_OF_ASC_NODE = 120.2842
ARG_OF_PERICENTER = 52.6006
MEAN_ANOMALY   = 307.5129

EPHEMERIS_TYPE = 0
CLASSIFICATION_TYPE = U
NORAD_CAT_ID   = 68070
ELEMENT_SET_NO = 999
REV_AT_EPOCH   = 443
BSTAR          = .80998527E-3
MEAN_MOTION_DOT = .163107E-2
MEAN_MOTION_DDOT = 0

CCSDS_OMM_VERS = 2.0
CREATION_DATE  = 
ORIGINATOR     = 

OBJECT_NAME    = STARLINK-36970
OBJECT_ID      = 2026-042C
CENTER_NAME    = EARTH
REF_FRAME      = TEME
TIME_SYSTEM    = UTC
MEAN_ELEMENT_THEORY = SGP/SGP4

EPOCH          = 2026-03-24T13:12:48.423744
MEAN_MOTION    = 15.80860859
ECCENTRICITY   = .00013048
INCLINATION    = 53.1577
RA_OF_ASC_NODE = 120.2747
ARG_OF_PERICENTER = 131.7481
MEAN_ANOMALY   = 228.3653

EPHEMERIS_TYPE = 0
CLASSIFICATION_TYPE = U
NORAD_CAT_ID   = 68071
ELEMENT_SET_NO = 999
REV_AT_EPOCH   = 443
BSTAR          = -.37523046E-3
MEAN_MOTION_DOT = -.74086E-3
MEAN_MOTION_DDOT = 0

CCSDS_OMM_VERS = 2.0
CREATION_DATE  = 
ORIGINATOR     = 

OBJECT_NAME    = STARLINK-36972
OBJECT_ID      = 2026-042D
CENTER_NAME    = EARTH
REF_FRAME      = TEME
TIME_SYSTEM    = UTC
MEAN_ELEMENT_THEORY = SGP/SGP4

EPOCH          = 2026-03-24T22:20:05.236224
MEAN_MOTION    = 15.80956842
ECCENTRICITY   = .00014197
INCLINATION    = 53.1573
RA_OF_ASC_NODE = 118.3787
ARG_OF_PERICENTER = 76.0708
MEAN_ANOMALY   = 284.0473

EPHEMERIS_TYPE = 0
CLASSIFICATION_TYPE = U
NORAD_CAT_ID   = 68072
ELEMENT_SET_NO = 999
REV_AT_EPOCH   = 449
BSTAR          = .11559636E-2
MEAN_MOTION_DOT = .234663E-2
MEAN_MOTION_DDOT = 0

CCSDS_OMM_VERS = 2.0
CREATION_DATE  = 
ORIGINATOR     = 

OBJECT_NAME    = STARLINK-37074
OBJECT_ID      = 2026-042E
CENTER_NAME    = EARTH
REF_FRAME      = TEME
TIME_SYSTEM    = UTC
MEAN_ELEMENT_THEORY = SGP/SGP4

EPOCH          = 2026-03-24T22:17:55.447872
MEAN_MOTION    = 15.80966732
ECCENTRICITY   = .00011228
INCLINATION    = 53.1572
RA_OF_ASC_NODE = 118.3689
ARG_OF_PERICENTER = 143.5316
MEAN_ANOMALY   = 216.5784

EPHEMERIS_TYPE = 0
CLASSIFICATION_TYPE = U
NORAD_CAT_ID   = 68073
ELEMENT_SET_NO = 999
REV_AT_EPOCH   = 449
BSTAR          = .12368655E-2
MEAN_MOTION_DOT = .251754E-2
MEAN_MOTION_DDOT = 0

CCSDS_OMM_VERS = 2.0
CREATION_DATE  = 
ORIGINATOR     = 

OBJECT_NAME    = STARLINK-37045
OBJECT_ID      = 2026-042F
CENTER_NAME    = EARTH
REF_FRAME      = TEME
TIME_SYSTEM    = UTC
MEAN_ELEMENT_THEORY = SGP/SGP4

EPOCH          = 2026-03-24T22:00:00.999936
MEAN_MOTION    = 15.75249766
ECCENTRICITY   = .00012623
INCLINATION    = 53.1591
RA_OF_ASC_NODE = 118.5862
ARG_OF_PERICENTER = 88.3683
MEAN_ANOMALY   = 124.3371

EPHEMERIS_TYPE = 0
CLASSIFICATION_TYPE = U
NORAD_CAT_ID   = 68074
ELEMENT_SET_NO = 999
REV_AT_EPOCH   = 449
BSTAR          = -.29375419E-3
MEAN_MOTION_DOT = -.45448E-3
MEAN_MOTION_DDOT = 0

CCSDS_OMM_VERS = 2.0
CREATION_DATE  = 
ORIGINATOR     = 

OBJECT_NAME    = STARLINK-37026
OBJECT_ID      = 2026-042G
CENTER_NAME    = EARTH
REF_FRAME      = TEME
TIME_SYSTEM    = UTC
MEAN_ELEMENT_THEORY = SGP/SGP4

EPOCH          = 2026-03-24T13:42:47.225088
MEAN_MOTION    = 15.75299708
ECCENTRICITY   = .00009569
INCLINATION    = 53.1574
RA_OF_ASC_NODE = 120.4120
ARG_OF_PERICENTER = 98.8841
MEAN_ANOMALY   = 261.2288

EPHEMERIS_TYPE = 0
CLASSIFICATION_TYPE = U
NORAD_CAT_ID   = 68075
ELEMENT_SET_NO = 999
REV_AT_EPOCH   = 443
BSTAR          = .65824328E-3
MEAN_MOTION_DOT = .101752E-2
MEAN_MOTION_DDOT = 0

