STARLINK-36996          
1 68064U 26041AA  26083.94237576  .00180227  00000+0  89552-3 0  9990
2 68064  53.1588 345.4897 0001436 132.1466 227.9679 15.80926417  3630
STARLINK-36836          
1 68065U 26041AB  26083.94087599  .00227173  00000+0  11245-2 0  9994
2 68065  53.1588 345.4789 0001824   9.4904 350.6153 15.80872540  3633
STARLINK-36976          
1 68066U 26041AC  26083.46234772  .00336592  00000+0  20982-2 0  9993
2 68066  53.1580 348.1940 0001235  80.5938 279.5222 15.75408118  3555
STARLINK-36929          
1 68067U 26041AD  26083.97412383  .00174768  00000+0  11183-2 0  9994
2 68067  53.1594 345.7004 0000920  62.8533 297.2581 15.75291826  3639
STARLINK-36990          
1 68068U 26041AE  26083.93937744  .00259011  00000+0  12758-2 0  9998
2 68068  53.1589 345.4683 0000827   9.5071 350.5967 15.80891177  3637
STARLINK-36766          
1 68069U 26042A   26083.55279665  .00210452  00000+0  10370-2 0  9993
2 68069  53.1580 120.2902 0001387 153.5453 206.5641 15.81018521  4431
STARLINK-36823          
1 68070U 26042B   26083.55204937  .00163107  00000+0  80999-3 0  9994
2 68070  53.1577 120.2842 0001227  52.6006 307.5129 15.80991095  4436
STARLINK-36970          
1 68071U 26042C   26083.55056046 -.00074086  00000+0 -37523-3 0  9995
2 68071  53.1577 120.2747 0001304 131.7481 228.3653 15.80860859  4438
STARLINK-36972          
1 68072U 26042D   26083.93061616  .00234663  00000+0  11560-2 0  9996
2 68072  53.1573 118.3787 0001419  76.0708 284.0473 15.80956842  4490
STARLINK-37074          
1 68073U 26042E   26083.92911398  .00251754  00000+0  12369-2 0  9995
2 68073  53.1572 118.3689 0001122 143.5316 216.5784 15.80966732  4491
STARLINK-37045          
1 68074U 26042F   26083.91667824 -.00045448  00000+0 -29375-3 0  9996
2 68074  53.1591 118.5862 0001262  88.3683 124.3371 15.75249766  4499
STARLINK-37026          
1 68075U 26042G   26083.57137992  .00101752  00000+0  65824-3 0  9995
2 68075  53.1574 120.4120 0000956  98.8841 261.2288 15.75299708  4434
